[{"OBJECT_NAME":"STARLINK-30205","OBJECT_ID":"2023-102E","EPOCH":"2026-03-09T22:00:01.999584","MEAN_MOTION":15.16447452,"ECCENTRICITY":0.00018696,"INCLINATION":43.0006,"RA_OF_ASC_NODE":246.9923,"ARG_OF_PERICENTER":276.197,"MEAN_ANOMALY":248.6091,"EPHEMERIS_TYPE":0,"CLASSIFICATION_TYPE":"U","NORAD_CAT_ID":57408,"ELEMENT_SET_NO":999,"REV_AT_EPOCH":577,"BSTAR":0.032319724,"MEAN_MOTION_DOT":0.00685913,"MEAN_MOTION_DDOT":0},{"OBJECT_NAME":"SHIYAN-31","OBJECT_ID":"2025-227A","EPOCH":"2026-03-09T23:00:16.199712","MEAN_MOTION":15.23071011,"ECCENTRICITY":0.00102897,"INCLINATION":80.0014,"RA_OF_ASC_NODE":266.3496,"ARG_OF_PERICENTER":145.5638,"MEAN_ANOMALY":214.6259,"EPHEMERIS_TYPE":0,"CLASSIFICATION_TYPE":"U","NORAD_CAT_ID":65945,"ELEMENT_SET_NO":999,"REV_AT_EPOCH":2244,"BSTAR":0.00029737952,"MEAN_MOTION_DOT":7.034e-5,"MEAN_MOTION_DDOT":0}]
